GLOBAL-31               
1 63027U 25033B   26188.45728236  .00007597  00000+0  20834-3 0  9990
2 63027  58.9974 234.2339 0011213  53.3699 306.8406 15.38212984 77443
GLOBAL-32               
1 64231U 25118B   26188.01123832  .00010696  00000+0  28042-3 0  9998
2 64231  58.9936  52.2944 0015816  56.0171 304.2405 15.39137756 61298
GLOBAL-33               
1 66554U 25267A   26188.31556696  .00009227  00000+0  25437-3 0  9997
2 66554  42.0199 299.1518 0008698  27.8990 332.2315 15.37192010 35145
GLOBAL-34               
1 68098U 26043A   26188.16073532  .00007990  00000+0  25286-3 0  9998
2 68098  42.0210 105.2579 0001678  35.7741 324.3209 15.33000245 18892
