{"fetched_at":"2026-07-07T18:29:28.582Z","source":"https://celestrak.org/NORAD/elements/gp.php?NAME=GLOBAL&FORMAT=JSON","constellation":"blacksky-gen3","records":[{"OBJECT_NAME":"GLOBAL-31","OBJECT_ID":"2025-033B","EPOCH":"2026-07-07T10:58:29.195040","CLASSIFICATION_TYPE":"U","MEAN_MOTION":15.38212984,"ECCENTRICITY":0.0011213,"INCLINATION":58.9974,"RA_OF_ASC_NODE":234.2339,"ARG_OF_PERICENTER":53.3699,"MEAN_ANOMALY":306.8406,"EPHEMERIS_TYPE":0,"NORAD_CAT_ID":63027,"ELEMENT_SET_NO":999,"REV_AT_EPOCH":7744,"BSTAR":0.00020834,"MEAN_MOTION_DOT":0.00007597,"MEAN_MOTION_DDOT":0},{"OBJECT_NAME":"GLOBAL-32","OBJECT_ID":"2025-118B","EPOCH":"2026-07-07T00:16:10.989984","CLASSIFICATION_TYPE":"U","MEAN_MOTION":15.39137756,"ECCENTRICITY":0.0015817,"INCLINATION":58.9936,"RA_OF_ASC_NODE":52.2944,"ARG_OF_PERICENTER":56.0171,"MEAN_ANOMALY":304.2405,"EPHEMERIS_TYPE":0,"NORAD_CAT_ID":64231,"ELEMENT_SET_NO":999,"REV_AT_EPOCH":6129,"BSTAR":0.00028042,"MEAN_MOTION_DOT":0.00010696,"MEAN_MOTION_DDOT":0},{"OBJECT_NAME":"GLOBAL-33","OBJECT_ID":"2025-267A","EPOCH":"2026-07-07T07:34:24.985344","CLASSIFICATION_TYPE":"U","MEAN_MOTION":15.3719201,"ECCENTRICITY":0.0008699,"INCLINATION":42.0199,"RA_OF_ASC_NODE":299.1518,"ARG_OF_PERICENTER":27.899,"MEAN_ANOMALY":332.2315,"EPHEMERIS_TYPE":0,"NORAD_CAT_ID":66554,"ELEMENT_SET_NO":999,"REV_AT_EPOCH":3514,"BSTAR":0.00025437,"MEAN_MOTION_DOT":0.00009227,"MEAN_MOTION_DDOT":0},{"OBJECT_NAME":"GLOBAL-34","OBJECT_ID":"2026-043A","EPOCH":"2026-07-07T03:51:27.530784","CLASSIFICATION_TYPE":"U","MEAN_MOTION":15.33000245,"ECCENTRICITY":0.0001678,"INCLINATION":42.021,"RA_OF_ASC_NODE":105.2579,"ARG_OF_PERICENTER":35.7741,"MEAN_ANOMALY":324.3209,"EPHEMERIS_TYPE":0,"NORAD_CAT_ID":68098,"ELEMENT_SET_NO":999,"REV_AT_EPOCH":1889,"BSTAR":0.00025286,"MEAN_MOTION_DOT":0.0000799,"MEAN_MOTION_DDOT":0}]}
